satname,norad_id,inclination_deg,eccentricity,mean_motion_rev_per_day,perigee_km,apogee_km,l1,l2
STARLINK-1263,45405,53.161,0.0001429,15.30196413,474.2464340344832,476.20512511688503,1 45405U 20019AX  26079.26714412  .00001495  00000+0  62607-4 0  9994,2 45405  53.1610  80.1396 0001429  79.8873 280.2289 15.30196413331596
STARLINK-1265,45406,53.1607,0.0001315,15.30245425,474.17824395027856,475.9806398745004,1 45406U 20019AY  26079.28186186  .00005423  00000+0  19481-3 0  9994,2 45406  53.1607  80.1473 0001315  98.0295 262.0855 15.30245425331599
STARLINK-1278,45408,53.0431,0.0003315,15.57860147,391.60634371111155,396.0961719260449,1 45408U 20019BA  26079.69303479  .00063297  00000+0  83374-3 0  9992,2 45408  53.0431  77.0287 0003315  72.6597 287.4777 15.57860147331674
STARLINK-1296,45412,53.1594,0.0001836,15.30842161,472.040439176827,474.5562862420129,1 45412U 20019BE  26079.27402729  .00040219  00000+0  13359-2 0  9993,2 45412  53.1594  80.0680 0001836  96.1165 264.0046 15.30842161331597
STARLINK-1298,45413,53.0325,0.0001296,16.06823448,254.71203329212403,256.4314906032196,1 45413U 20019BF  26079.47248896  .00923669  47019-3  11788-2 0  9997,2 45413  53.0325 358.0283 0001296  81.8768 278.2411 16.06823448332849
STARLINK-1309,45414,53.066,0.0006773,15.56801571,392.3319891360734,401.50948234490716,1 45414U 20019BG  26079.35533671  .00071741  00000+0  98043-3 0  9993,2 45414  53.0660  71.9954 0006773  68.2624 291.9108 15.56801571331697
STARLINK-1316,45415,53.1617,0.0001517,15.30760346,472.5030878818443,474.58188743839946,1 45415U 20019BH  26079.71109324  .00010186  00000+0  34952-3 0  9993,2 45415  53.1617  78.0871 0001517 105.6143 254.5026 15.30760346331689
STARLINK-1286,45417,53.0483,0.0003689,15.51622668,409.4830429418844,414.4927971078787,1 45417U 20019BK  26079.68742392  .00037907  00000+0  63227-3 0  9996,2 45417  53.0483  77.8438 0003689  84.0502 276.0927 15.51622668331932
STARLINK-1308,45419,53.0535,0.0005226,15.52702663,405.2920634370839,412.3858106865009,1 45419U 20019BM  26079.76093507  .00156684  00000+0  24532-2 0  9993,2 45419  53.0535  98.8512 0005226  55.1841 304.9659 15.52702663331390
STARLINK-1329,45531,53.0496,4.23e-05,15.58369625,392.08880667015546,392.66159200221955,1 45531U 20025A   26079.55080044  .00038549  00000+0  50230-3 0  9998,2 45531  53.0496  28.6484 0000423 115.7910 244.3145 15.58369625327142
STARLINK-1338,45532,53.049,0.0004802,15.56598541,394.25617944953774,400.76351067953783,1 45532U 20025B   26079.23721662  .00041481  00000+0  57646-3 0  9999,2 45532  53.0490  33.6682 0004802  50.0986 310.0446 15.56598541327045
STARLINK-1350,45535,53.0743,0.0002296,15.36392899,455.2170296731665,458.3556264654162,1 45535U 20025E   26079.13463987  .00009678  00000+0  27908-3 0  9994,2 45535  53.0743 344.0814 0002296  91.5229 268.6037 15.36392899327769
STARLINK-1362,45538,53.163,0.0001358,15.29696663,475.78746569446685,477.649244408899,1 45538U 20025H   26079.62875579 -.00169930  00000+0 -59487-2 0  9991,2 45538  53.1630  50.1855 0001358 139.8141 220.2960 15.29696663326851
STARLINK-1368,45540,53.1611,0.0001155,15.3019075,474.45112303712085,476.0342537451388,1 45540U 20025K   26079.63839829 -.00000748  00000+0 -13127-4 0  9997,2 45540  53.1611  50.4712 0001155  92.9592 267.1541 15.30190750326844
STARLINK-1371,45542,53.0512,0.000209,15.48911363,418.4887061070531,421.3302895431434,1 45542U 20025M   26079.59426534  .00091859  00000+0  16632-2 0  9992,2 45542  53.0512  37.2540 0002090  80.8202 279.3042 15.48911363327022
STARLINK-1372,45543,53.1617,0.0001269,15.30187852,474.3816464170741,476.12103637812015,1 45543U 20025N   26079.87642825  .00001170  00000+0  51631-4 0  9994,2 45543  53.1617  49.0615 0001269  94.7083 265.4063 15.30187852325983
STARLINK-1373,45544,53.0503,0.0004792,15.52685555,405.63644829954865,412.1411338176986,1 45544U 20025P   26079.58147946  .00109416  00000+0  17268-2 0  9995,2 45544  53.0503  36.5655 0004792  56.5227 303.6240 15.52685555327039
STARLINK-1327,45555,53.0472,0.0006437,15.56167951,394.3973751839658,403.12195194864125,1 45555U 20025AA  26079.51358475  .00088739  00000+0  12374-2 0  9998,2 45555  53.0472  14.2842 0006437 104.7073 255.4652 15.56167951327333
STARLINK-1356,45564,53.0519,0.000594,15.46466195,423.03105748723283,431.1156473859264,1 45564U 20025AK  26079.14105157  .00051199  00000+0  10177-2 0  9993,2 45564  53.0519  24.0282 0005940  76.5833 283.5835 15.46466195327167
STARLINK-1357,45565,53.0515,0.0004481,15.57929536,390.61573901119846,396.68461467908764,1 45565U 20025AL  26079.88485936  .00097172  00000+0  12675-2 0  9997,2 45565  53.0515 343.7438 0004481 150.1658 209.9609 15.57929536327808
STARLINK-1361,45567,53.0502,0.0007421,15.49580309,412.9095238036125,422.99628043633857,1 45567U 20025AN  26079.85383445  .00084273  00000+0  14912-2 0  9992,2 45567  53.0502  20.4430 0007421  78.0076 282.1763 15.49580309327284
STARLINK-1363,45568,53.043,0.0007087,15.79273073,327.7432531884224,337.25490876960157,1 45568U 20025AP  26079.71691365  .00126199  00000+0  68056-3 0  9994,2 45568  53.0430 342.5333 0007087 100.3411 259.8408 15.79273073327798
STARLINK-1366,45569,53.0425,0.000729,15.78191122,330.67148827547953,340.4600669252204,1 45569U 20025AQ  26079.73898230  .00116159  00000+0  65871-3 0  9994,2 45569  53.0425 343.2800 0007290  99.2731 260.9114 15.78191122327786
STARLINK-1376,45570,53.1599,0.0001425,15.30880339,472.20813882879884,474.160765442658,1 45570U 20025AR  26079.56003318  .00008782  00000+0  30193-3 0  9993,2 45570  53.1599  27.2955 0001425 114.4392 245.6758 15.30880339327167
STARLINK-1320,45572,53.0468,0.0006112,15.7026,354.0360997153848,362.270541002993,1 45572U 20025AT  26079.56769348  .00066873  00000+0  53942-3 0  9999,2 45572  53.0468 291.9804 0006112  88.9383 271.2334 15.70260000328515
STARLINK-1321,45573,53.0505,0.0004453,15.50210566,413.0852766344069,419.13623368515255,1 45573U 20025AU  26079.07929282  .00084018  00000+0  14550-2 0  9993,2 45573  53.0505   8.6797 0004453  98.7796 261.3716 15.50210566327079
STARLINK-1331,45578,53.0536,0.0005681,15.50227011,412.2029207413507,419.9224904468465,1 45578U 20025AZ  26079.86096484  .00080605  00000+0  13957-2 0  9992,2 45578  53.0536  11.6159 0005681 123.3135 236.8417 15.50227011327416
STARLINK-1333,45580,53.1624,0.0001085,15.30193351,474.4913313531615,475.9785130602804,1 45580U 20025BB  26079.27436342  .00000119  00000+0  16134-4 0  9995,2 45580  53.1624  28.6428 0001085  82.7399 277.3725 15.30193351327126
STARLINK-1335,45581,53.1568,0.0001093,15.29349539,477.00622028867565,478.5049184043346,1 45581U 20025BC  26079.22447536  .00005777  00000+0  21242-3 0  9998,2 45581  53.1568  26.1777 0001093 100.9923 259.1201 15.29349539327147
STARLINK-1337,45582,53.0536,0.0005222,15.59883326,384.46117506629525,391.5277227515362,1 45582U 20025BD  26079.83973899  .00103518  00000+0  12526-2 0  9998,2 45582  53.0536   7.5349 0005222 123.2232 236.9281 15.59883326327454
STARLINK-1347,45586,53.0449,0.0004975,15.56428482,394.63225486987267,401.3745145526618,1 45586U 20025BH  26079.86271047  .00098062  00000+0  13524-2 0  9997,2 45586  53.0449 335.4356 0004975 110.1305 250.0241 15.56428482327900
STARLINK-1364,45589,53.0511,0.0007909,15.51511935,406.94042965477274,417.6815602932229,1 45589U 20025BL  26079.51658633  .00097491  00000+0  16068-2 0  9993,2 45589  53.0511  11.2077 0007909 103.2758 256.9133 15.51511935327374
STARLINK-1365,45590,53.052,0.0004476,15.47040578,422.3435708877214,428.43408720988646,1 45590U 20025BM  26079.59207929  .00080599  00000+0  15603-2 0  9996,2 45590  53.0520  41.5230 0004476  85.3008 274.8509 15.47040578326973
STARLINK-1443,45660,53.138,0.0003534,15.26096031,485.0699186368329,489.92254820621474,1 45660U 20035D   26079.52418932  .00042962  00000+0  16478-2 0  9999,2 45660  53.1380  14.9047 0003534  97.1500 262.9900 15.26096031320416
STARLINK-1446,45663,53.0243,7.88e-05,15.43323679,435.7710891492379,436.84504569186447,1 45663U 20035G   26079.88609303  .00016115  00000+0  36455-3 0  9994,2 45663  53.0243 306.1733 0000788 345.5432  14.5550 15.43323679321408
STARLINK-1448,45665,53.0509,0.0007873,15.54641243,397.8567490054329,408.53463546262446,1 45665U 20035J   26079.84456667  .00095949  00000+0  14127-2 0  9998,2 45665  53.0509 358.9214 0007873 122.8893 237.2875 15.54641243320655
STARLINK-1451,45668,53.0543,0.0002004,15.106745,532.7565109005909,535.5269522161989,1 45668U 20035M   26079.79749997  .00028198  00000+0  16952-2 0  9996,2 45668  53.0543  15.8868 0002004  74.6199 285.5013 15.10674500320423
STARLINK-1452,45669,53.0312,0.0006614,15.46857861,421.4243734562533,430.42478611399383,1 45669U 20035N   26079.86408840  .00072240  00000+0  14092-2 0  9994,2 45669  53.0312 328.4112 0006614 100.2871 259.8881 15.46857861321090
STARLINK-1453,45670,53.0471,0.0005344,15.54815003,399.0667719500507,406.31412032448316,1 45670U 20035P   26079.38392867  .00079463  00000+0  11670-2 0  9997,2 45670  53.0471 321.7189 0005344  95.4599 264.7021 15.54815003321035
STARLINK-1454,45671,53.0513,0.0008126,15.53288014,401.6200206438252,412.6474426368877,1 45671U 20035Q   26079.50359318  .00104290  00000+0  16106-2 0  9992,2 45671  53.0513   0.7971 0008126 104.5715 255.6196 15.53288014320596
STARLINK-1456,45673,53.0501,0.0002588,15.51577875,410.3612854439707,413.8759217443903,1 45673U 20035S   26078.99473810  .00086385  00000+0  14247-2 0  9998,2 45673  53.0501 356.8211 0002588 150.6102 209.5053 15.51577875320623
STARLINK-1457,45674,53.0466,0.0007321,15.81570472,321.0908012405216,330.9069970240307,1 45674U 20035T   26079.86228113  .00131986  00000+0  64003-3 0  9994,2 45674  53.0466 326.3528 0007321 115.4943 244.6837 15.81570472321090
STARLINK-1458,45675,53.0537,0.0007035,15.44212969,428.8994676808652,438.4837105057195,1 45675U 20035U   26079.48963002  .00059026  00000+0  12641-2 0  9990,2 45675  53.0537   4.1643 0007035 115.4527 244.7207 15.44212969320521
